{"fetched_at":"2026-07-06T18:35:28.450Z","source":"https://celestrak.org/NORAD/elements/gp.php?NAME=CENTAURI&FORMAT=JSON","constellation":"myriota","records":[{"OBJECT_NAME":"CENTAURI-1","OBJECT_ID":"2018-099BD","EPOCH":"2026-07-06T03:27:05.756832","CLASSIFICATION_TYPE":"U","MEAN_MOTION":15.16564907,"ECCENTRICITY":0.00124351,"INCLINATION":97.4208,"RA_OF_ASC_NODE":238.4574,"ARG_OF_PERICENTER":260.0586,"MEAN_ANOMALY":99.9244,"EPHEMERIS_TYPE":0,"NORAD_CAT_ID":43809,"ELEMENT_SET_NO":999,"REV_AT_EPOCH":41537,"BSTAR":0.00030846782,"MEAN_MOTION_DOT":0.00005966,"MEAN_MOTION_DDOT":0},{"OBJECT_NAME":"CENTAURI-6","OBJECT_ID":"2024-066K","EPOCH":"2026-07-05T09:03:01.135008","CLASSIFICATION_TYPE":"U","MEAN_MOTION":15.0597582,"ECCENTRICITY":0.000121,"INCLINATION":45.6049,"RA_OF_ASC_NODE":159.4917,"ARG_OF_PERICENTER":236.638,"MEAN_ANOMALY":123.4389,"EPHEMERIS_TYPE":0,"NORAD_CAT_ID":59451,"ELEMENT_SET_NO":999,"REV_AT_EPOCH":12286,"BSTAR":0.00039745,"MEAN_MOTION_DOT":0.00005637,"MEAN_MOTION_DDOT":0},{"OBJECT_NAME":"CENTAURI-8","OBJECT_ID":"2025-009DK","EPOCH":"2026-07-06T04:41:25.449216","CLASSIFICATION_TYPE":"U","MEAN_MOTION":14.97899378,"ECCENTRICITY":0.00031471,"INCLINATION":97.7049,"RA_OF_ASC_NODE":267.056,"ARG_OF_PERICENTER":88.2464,"MEAN_ANOMALY":271.9119,"EPHEMERIS_TYPE":0,"NORAD_CAT_ID":62714,"ELEMENT_SET_NO":999,"REV_AT_EPOCH":8032,"BSTAR":0.0002875045,"MEAN_MOTION_DOT":0.00003328,"MEAN_MOTION_DDOT":0}]}
