CENTAURI-1              
1 43809U 18099BD  26187.14381662  .00005966  00000+0  30847-3 0  9996
2 43809  97.4208 238.4574 0012435 260.0586  99.9244 15.16564907415372
CENTAURI-6              
1 59451U 24066K   26186.37709647  .00005637  00000+0  39745-3 0  9999
2 59451  45.6049 159.4917 0001210 236.6380 123.4389 15.05975820122863
CENTAURI-8              
1 62714U 25009DK  26187.19543344  .00003328  00000+0  28750-3 0  9993
2 62714  97.7049 267.0560 0003147  88.2464 271.9119 14.97899378 80329
